{"type": "FeatureCollection", "features": [ {"type": "Feature", "properties": {"norad_id": 37834, "name": "INTELSAT 18 (IS-18)", "group": "intelsat", "lat": 0.01988366723803939, "lon": 45.177930544503056, "alt_km": 35789.4525606676, "timestamp": "2025-12-27T08:36:18.033857+00:00", "meta": {"OBJECT_NAME": "INTELSAT 18 (IS-18)", "OBJECT_ID": "2011-056A", "EPOCH": "2025-12-27T01:52:27.147072", "MEAN_MOTION": 1.00271983, "ECCENTRICITY": 0.0001994, "INCLINATION": 0.0131, "RA_OF_ASC_NODE": 303.824, "ARG_OF_PERICENTER": 347.336, "MEAN_ANOMALY": 12.7657, "EPHEMERIS_TYPE": 0, "CLASSIFICATION_TYPE": "U", "NORAD_CAT_ID": 37834, "ELEMENT_SET_NO": 999, "REV_AT_EPOCH": 5208, "BSTAR": 0, "MEAN_MOTION_DOT": 7.5e-07, "MEAN_MOTION_DDOT": 0}, "tle": {"line1": "1 37834U 11056A   25361.07809198  .00000075  00000+0  00000+0 0  9997", "line2": "2 37834   0.0131 303.8240 0001994 347.3360  12.7657  1.00271983 52085"}}, "geometry": {"type": "Point", "coordinates": [45.177930544503056, 0.01988366723803939]}}, {"type": "Feature", "properties": {"norad_id": 38098, "name": "INTELSAT 22 (IS-22)", "group": "intelsat", "lat": -0.04618761816485691, "lon": -62.75899110970978, "alt_km": 35778.12875551561, "timestamp": "2025-12-27T08:36:18.033869+00:00", "meta": {"OBJECT_NAME": "INTELSAT 22 (IS-22)", "OBJECT_ID": "2012-011A", "EPOCH": "2025-12-27T03:04:20.260128", "MEAN_MOTION": 1.00270695, "ECCENTRICITY": 0.0001958, "INCLINATION": 0.0346, "RA_OF_ASC_NODE": 54.9958, "ARG_OF_PERICENTER": 245.4385, "MEAN_ANOMALY": 273.5982, "EPHEMERIS_TYPE": 0, "CLASSIFICATION_TYPE": "U", "NORAD_CAT_ID": 38098, "ELEMENT_SET_NO": 999, "REV_AT_EPOCH": 546, "BSTAR": 0, "MEAN_MOTION_DOT": 0, "MEAN_MOTION_DDOT": 0}, "tle": {"line1": "1 38098U 12011A   25361.12801227  .00000000  00000+0  00000+0 0  9991", "line2": "2 38098   0.0346  54.9958 0001958 245.4385 273.5982  1.00270695  5468"}}, "geometry": {"type": "Point", "coordinates": [-62.75899110970978, -0.04618761816485691]}}, {"type": "Feature", "properties": {"norad_id": 38356, "name": "INTELSAT 19 (IS-19)", "group": "intelsat", "lat": 0.01438913360889308, "lon": 31.1992586356706, "alt_km": 35792.066865226436, "timestamp": "2025-12-27T08:36:18.033898+00:00", "meta": {"OBJECT_NAME": "INTELSAT 19 (IS-19)", "OBJECT_ID": "2012-030A", "EPOCH": "2025-12-27T03:04:38.558784", "MEAN_MOTION": 1.00271928, "ECCENTRICITY": 0.0003054, "INCLINATION": 0.0096, "RA_OF_ASC_NODE": 355.6735, "ARG_OF_PERICENTER": 277.7039, "MEAN_ANOMALY": 34.6566, "EPHEMERIS_TYPE": 0, "CLASSIFICATION_TYPE": "U", "NORAD_CAT_ID": 38356, "ELEMENT_SET_NO": 999, "REV_AT_EPOCH": 4872, "BSTAR": 0, "MEAN_MOTION_DOT": -3.4e-07, "MEAN_MOTION_DDOT": 0}, "tle": {"line1": "1 38356U 12030A   25361.12822406 -.00000034  00000+0  00000+0 0  9999", "line2": "2 38356   0.0096 355.6735 0003054 277.7039  34.6566  1.00271928 48724"}}, "geometry": {"type": "Point", "coordinates": [31.1992586356706, 0.01438913360889308]}}, {"type": "Feature", "properties": {"norad_id": 38740, "name": "INTELSAT 20 (IS-20)", "group": "intelsat", "lat": -0.02372841913447828, "lon": -66.32334477373455, "alt_km": 35789.18831439198, "timestamp": "2025-12-27T08:36:18.033911+00:00", "meta": {"OBJECT_NAME": "INTELSAT 20 (IS-20)", "OBJECT_ID": "2012-043A", "EPOCH": "2025-12-26T23:37:51.657024", "MEAN_MOTION": 1.00270086, "ECCENTRICITY": 0.0001654, "INCLINATION": 0.0132, "RA_OF_ASC_NODE": 63.1517, "ARG_OF_PERICENTER": 118.2124, "MEAN_ANOMALY": 337.3262, "EPHEMERIS_TYPE": 0, "CLASSIFICATION_TYPE": "U", "NORAD_CAT_ID": 38740, "ELEMENT_SET_NO": 999, "REV_AT_EPOCH": 4902, "BSTAR": 0, "MEAN_MOTION_DOT": -2e-08, "MEAN_MOTION_DDOT": 0}, "tle": {"line1": "1 38740U 12043A   25360.98462566 -.00000002  00000+0  00000+0 0  9995", "line2": "2 38740   0.0132  63.1517 0001654 118.2124 337.3262  1.00270086 49023"}}, "geometry": {"type": "Point", "coordinates": [-66.32334477373455, -0.02372841913447828]}}, {"type": "Feature", "properties": {"norad_id": 38749, "name": "INTELSAT 21 (IS-21)", "group": "intelsat", "lat": 0.011656459240964912, "lon": 167.14612497715152, "alt_km": 35789.06025015861, "timestamp": "2025-12-27T08:36:18.033923+00:00", "meta": {"OBJECT_NAME": "INTELSAT 21 (IS-21)", "OBJECT_ID": "2012-045A", "EPOCH": "2025-12-27T03:48:48.229056", "MEAN_MOTION": 1.00269176, "ECCENTRICITY": 0.0001956, "INCLINATION": 0.0214, "RA_OF_ASC_NODE": 2.4817, "ARG_OF_PERICENTER": 270.2297, "MEAN_ANOMALY": 182.3947, "EPHEMERIS_TYPE": 0, "CLASSIFICATION_TYPE": "U", "NORAD_CAT_ID": 38749, "ELEMENT_SET_NO": 999, "REV_AT_EPOCH": 4880, "BSTAR": 0, "MEAN_MOTION_DOT": 0, "MEAN_MOTION_DDOT": 0}, "tle": {"line1": "1 38749U 12045A   25361.15889154  .00000000  00000+0  00000+0 0  9999", "line2": "2 38749   0.0214   2.4817 0001956 270.2297 182.3947  1.00269176 48808"}}, "geometry": {"type": "Point", "coordinates": [167.14612497715152, 0.011656459240964912]}}, {"type": "Feature", "properties": {"norad_id": 38867, "name": "INTELSAT 23 (IS-23)", "group": "intelsat", "lat": 0.022921682861167927, "lon": 172.16709909528527, "alt_km": 35787.88481509865, "timestamp": "2025-12-27T08:36:18.033935+00:00", "meta": {"OBJECT_NAME": "INTELSAT 23 (IS-23)", "OBJECT_ID": "2012-057A", "EPOCH": "2025-12-27T02:28:38.678016", "MEAN_MOTION": 1.0027277, "ECCENTRICITY": 6.8e-05, "INCLINATION": 0.0208, "RA_OF_ASC_NODE": 81.4413, "ARG_OF_PERICENTER": 226.5034, "MEAN_ANOMALY": 132.0687, "EPHEMERIS_TYPE": 0, "CLASSIFICATION_TYPE": "U", "NORAD_CAT_ID": 38867, "ELEMENT_SET_NO": 999, "REV_AT_EPOCH": 4822, "BSTAR": 0, "MEAN_MOTION_DOT": -2.62e-06, "MEAN_MOTION_DDOT": 0}, "tle": {"line1": "1 38867U 12057A   25361.10322544 -.00000262  00000+0  00000+0 0  9994", "line2": "2 38867   0.0208  81.4413 0000680 226.5034 132.0687  1.00272770 48220"}}, "geometry": {"type": "Point", "coordinates": [172.16709909528527, 0.022921682861167927]}}, {"type": "Feature", "properties": {"norad_id": 39360, "name": "FM-6", "group": "intelsat", "lat": 0.025857847425102748, "lon": 108.92697512913259, "alt_km": 35782.91456670014, "timestamp": "2025-12-27T08:36:18.033946+00:00", "meta": {"OBJECT_NAME": "FM-6", "OBJECT_ID": "2013-058A", "EPOCH": "2025-12-25T23:15:38.712384", "MEAN_MOTION": 1.00267622, "ECCENTRICITY": 0.00031338, "INCLINATION": 0.0194, "RA_OF_ASC_NODE": 74.6696, "ARG_OF_PERICENTER": 105.3027, "MEAN_ANOMALY": 147.4825, "EPHEMERIS_TYPE": 0, "CLASSIFICATION_TYPE": "U", "NORAD_CAT_ID": 39360, "ELEMENT_SET_NO": 999, "REV_AT_EPOCH": 4433, "BSTAR": 0, "MEAN_MOTION_DOT": 5e-08, "MEAN_MOTION_DDOT": 0}, "tle": {"line1": "1 39360U 13058A   25359.96919806  .00000005  00000+0  00000+0 0  9993", "line2": "2 39360   0.0194  74.6696 0003133 105.3027 147.4825  1.00267622 44334"}}, "geometry": {"type": "Point", "coordinates": [108.92697512913259, 0.025857847425102748]}}, {"type": "Feature", "properties": {"norad_id": 40271, "name": "INTELSAT 30 (IS-30)", "group": "intelsat", "lat": 0.034559599742068965, "lon": 130.1118419949756, "alt_km": 35781.872072480415, "timestamp": "2025-12-27T08:36:18.033958+00:00", "meta": {"OBJECT_NAME": "INTELSAT 30 (IS-30)", "OBJECT_ID": "2014-062A", "EPOCH": "2025-12-26T05:38:38.555808", "MEAN_MOTION": 1.00271488, "ECCENTRICITY": 0.0001425, "INCLINATION": 0.0176, "RA_OF_ASC_NODE": 41.6763, "ARG_OF_PERICENTER": 44.2324, "MEAN_ANOMALY": 358.6785, "EPHEMERIS_TYPE": 0, "CLASSIFICATION_TYPE": "U", "NORAD_CAT_ID": 40271, "ELEMENT_SET_NO": 999, "REV_AT_EPOCH": 506, "BSTAR": 0, "MEAN_MOTION_DOT": -1.29e-06, "MEAN_MOTION_DDOT": 0}, "tle": {"line1": "1 40271U 14062A   25360.23516847 -.00000129  00000+0  00000+0 0  9990", "line2": "2 40271   0.0176  41.6763 0001425  44.2324 358.6785  1.00271488  5062"}}, "geometry": {"type": "Point", "coordinates": [130.1118419949756, 0.034559599742068965]}}, {"type": "Feature", "properties": {"norad_id": 40333, "name": "DIRECTV 14", "group": "intelsat", "lat": 0.023012469487747357, "lon": 126.02567658721927, "alt_km": 35784.431380580216, "timestamp": "2025-12-27T08:36:18.033970+00:00", "meta": {"OBJECT_NAME": "DIRECTV 14", "OBJECT_ID": "2014-078B", "EPOCH": "2025-12-24T12:37:43.773312", "MEAN_MOTION": 1.00279829, "ECCENTRICITY": 3.885e-05, "INCLINATION": 0.0184, "RA_OF_ASC_NODE": 340.4706, "ARG_OF_PERICENTER": 254.7884, "MEAN_ANOMALY": 308.2619, "EPHEMERIS_TYPE": 0, "CLASSIFICATION_TYPE": "U", "NORAD_CAT_ID": 40333, "ELEMENT_SET_NO": 999, "REV_AT_EPOCH": 4029, "BSTAR": 0, "MEAN_MOTION_DOT": -1.06e-06, "MEAN_MOTION_DDOT": 0}, "tle": {"line1": "1 40333U 14078B   25358.52620108 -.00000106  00000+0  00000+0 0  9996", "line2": "2 40333   0.0184 340.4706 0000388 254.7884 308.2619  1.00279829 40291"}}, "geometry": {"type": "Point", "coordinates": [126.02567658721927, 0.023012469487747357]}}, {"type": "Feature", "properties": {"norad_id": 40663, "name": "DIRECTV 15", "group": "intelsat", "lat": 0.03624687818273619, "lon": 122.25315353388531, "alt_km": 35785.153174351835, "timestamp": "2025-12-27T08:36:18.033982+00:00", "meta": {"OBJECT_NAME": "DIRECTV 15", "OBJECT_ID": "2015-026A", "EPOCH": "2025-12-26T07:34:38.576064", "MEAN_MOTION": 1.00269733, "ECCENTRICITY": 3.61e-05, "INCLINATION": 0.018, "RA_OF_ASC_NODE": 29.1854, "ARG_OF_PERICENTER": 84.7041, "MEAN_ANOMALY": 351.9356, "EPHEMERIS_TYPE": 0, "CLASSIFICATION_TYPE": "U", "NORAD_CAT_ID": 40663, "ELEMENT_SET_NO": 999, "REV_AT_EPOCH": 3873, "BSTAR": 0, "MEAN_MOTION_DOT": -8e-07, "MEAN_MOTION_DDOT": 0}, "tle": {"line1": "1 40663U 15026A   25360.31572426 -.00000080  00000+0  00000+0 0  9996", "line2": "2 40663   0.0180  29.1854 0000361  84.7041 351.9356  1.00269733 38737"}}, "geometry": {"type": "Point", "coordinates": [122.25315353388531, 0.03624687818273619]}}]}